{
  "type": "FeatureCollection",
  "features": [
    {
      "type": "Feature",
      "properties": {
        "norad_id": 66429,
        "name": "STARLINK-35533",
        "group": "last-30-days",
        "lat": 15.02365429476501,
        "lon": 106.50813253951542,
        "alt_km": 419.0128991690335,
        "timestamp": "2025-12-05T11:32:54.808762+00:00",
        "meta_object_name": "STARLINK-35533",
        "meta_object_id": "2025-259H",
        "meta_epoch": "2025-12-04T18:00:02.000160",
        "meta_mean_motion": 15.50942306,
        "meta_eccentricity": 0.00013,
        "meta_inclination": 43.0006,
        "meta_ra_of_asc_node": 94.0409,
        "meta_arg_of_pericenter": 266.9909,
        "meta_mean_anomaly": 351.3849,
        "meta_ephemeris_type": 0,
        "meta_classification_type": "U",
        "meta_norad_cat_id": 66429,
        "meta_element_set_no": 999,
        "meta_rev_at_epoch": 499,
        "meta_bstar": -0.029248,
        "meta_mean_motion_dot": -0.01567241,
        "meta_mean_motion_ddot": 0,
        "tle_line1": "1 66429U 25259H   25338.75002315 -.01567241  00000+0 -29248-1 0  9997",
        "tle_line2": "2 66429  43.0006  94.0409 0001300 266.9909 351.3849 15.50942306  4993"
      },
      "geometry": {
        "type": "Point",
        "coordinates": [
          106.50813253951542,
          15.02365429476501
        ]
      }
    },
    {
      "type": "Feature",
      "properties": {
        "norad_id": 66430,
        "name": "STARLINK-35470",
        "group": "last-30-days",
        "lat": 17.760271190679905,
        "lon": 109.86371701286882,
        "alt_km": 412.7172440102495,
        "timestamp": "2025-12-05T11:32:54.808772+00:00",
        "meta_object_name": "STARLINK-35470",
        "meta_object_id": "2025-259J",
        "meta_epoch": "2025-12-04T18:00:02.000160",
        "meta_mean_motion": 15.50533908,
        "meta_eccentricity": 0.0001577,
        "meta_inclination": 43.0006,
        "meta_ra_of_asc_node": 94.0378,
        "meta_arg_of_pericenter": 259.9152,
        "meta_mean_anomaly": 0.4249,
        "meta_ephemeris_type": 0,
        "meta_classification_type": "U",
        "meta_norad_cat_id": 66430,
        "meta_element_set_no": 999,
        "meta_rev_at_epoch": 499,
        "meta_bstar": 0.00080523,
        "meta_mean_motion_dot": 0.00047106,
        "meta_mean_motion_ddot": 0,
        "tle_line1": "1 66430U 25259J   25338.75002315  .00047106  00000+0  80523-3 0  9994",
        "tle_line2": "2 66430  43.0006  94.0378 0001577 259.9152   0.4249 15.50533908  4998"
      },
      "geometry": {
        "type": "Point",
        "coordinates": [
          109.86371701286882,
          17.760271190679905
        ]
      }
    },
    {
      "type": "Feature",
      "properties": {
        "norad_id": 66431,
        "name": "STARLINK-35439",
        "group": "last-30-days",
        "lat": 18.987689114360006,
        "lon": 111.42297584247736,
        "alt_km": 412.25189727243287,
        "timestamp": "2025-12-05T11:32:54.808782+00:00",
        "meta_object_name": "STARLINK-35439",
        "meta_object_id": "2025-259K",
        "meta_epoch": "2025-12-04T18:00:02.000160",
        "meta_mean_motion": 15.50516902,
        "meta_eccentricity": 0.0001606,
        "meta_inclination": 43.0005,
        "meta_ra_of_asc_node": 94.0315,
        "meta_arg_of_pericenter": 276.7874,
        "meta_mean_anomaly": 345.4865,
        "meta_ephemeris_type": 0,
        "meta_classification_type": "U",
        "meta_norad_cat_id": 66431,
        "meta_element_set_no": 999,
        "meta_rev_at_epoch": 499,
        "meta_bstar": 0.0011113,
        "meta_mean_motion_dot": 0.00065253,
        "meta_mean_motion_ddot": 0,
        "tle_line1": "1 66431U 25259K   25338.75002315  .00065253  00000+0  11113-2 0  9996",
        "tle_line2": "2 66431  43.0005  94.0315 0001606 276.7874 345.4865 15.50516902  4991"
      },
      "geometry": {
        "type": "Point",
        "coordinates": [
          111.42297584247736,
          18.987689114360006
        ]
      }
    },
    {
      "type": "Feature",
      "properties": {
        "norad_id": 66432,
        "name": "STARLINK-35446",
        "group": "last-30-days",
        "lat": 20.16671476656487,
        "lon": 112.95967692331922,
        "alt_km": 412.2420308721821,
        "timestamp": "2025-12-05T11:32:54.808792+00:00",
        "meta_object_name": "STARLINK-35446",
        "meta_object_id": "2025-259L",
        "meta_epoch": "2025-12-04T18:00:02.000160",
        "meta_mean_motion": 15.50574443,
        "meta_eccentricity": 0.0001369,
        "meta_inclination": 43.0007,
        "meta_ra_of_asc_node": 94.0262,
        "meta_arg_of_pericenter": 276.2152,
        "meta_mean_anomaly": 347.9385,
        "meta_ephemeris_type": 0,
        "meta_classification_type": "U",
        "meta_norad_cat_id": 66432,
        "meta_element_set_no": 999,
        "meta_rev_at_epoch": 499,
        "meta_bstar": -0.00030072,
        "meta_mean_motion_dot": -0.0001794,
        "meta_mean_motion_ddot": 0,
        "tle_line1": "1 66432U 25259L   25338.75002315 -.00017940  00000+0 -30072-3 0  9995",
        "tle_line2": "2 66432  43.0007  94.0262 0001369 276.2152 347.9385 15.50574443  4993"
      },
      "geometry": {
        "type": "Point",
        "coordinates": [
          112.95967692331922,
          20.16671476656487
        ]
      }
    },
    {
      "type": "Feature",
      "properties": {
        "norad_id": 66433,
        "name": "STARLINK-35457",
        "group": "last-30-days",
        "lat": 21.36388986480354,
        "lon": 114.56469343759902,
        "alt_km": 412.34124179209084,
        "timestamp": "2025-12-05T11:32:54.808802+00:00",
        "meta_object_name": "STARLINK-35457",
        "meta_object_id": "2025-259M",
        "meta_epoch": "2025-12-04T18:00:02.000160",
        "meta_mean_motion": 15.50559315,
        "meta_eccentricity": 0.0001528,
        "meta_inclination": 43.0007,
        "meta_ra_of_asc_node": 94.0224,
        "meta_arg_of_pericenter": 260.7799,
        "meta_mean_anomaly": 5.3055,
        "meta_ephemeris_type": 0,
        "meta_classification_type": "U",
        "meta_norad_cat_id": 66433,
        "meta_element_set_no": 999,
        "meta_rev_at_epoch": 499,
        "meta_bstar": -3.5976e-05,
        "meta_mean_motion_dot": -2.45e-05,
        "meta_mean_motion_ddot": 0,
        "tle_line1": "1 66433U 25259M   25338.75002315 -.00002450  00000+0 -35976-4 0  9995",
        "tle_line2": "2 66433  43.0007  94.0224 0001528 260.7799   5.3055 15.50559315  4994"
      },
      "geometry": {
        "type": "Point",
        "coordinates": [
          114.56469343759902,
          21.36388986480354
        ]
      }
    },
    {
      "type": "Feature",
      "properties": {
        "norad_id": 66434,
        "name": "STARLINK-35389",
        "group": "last-30-days",
        "lat": 22.53463281402569,
        "lon": 116.18089174186908,
        "alt_km": 412.1706723027346,
        "timestamp": "2025-12-05T11:32:54.808816+00:00",
        "meta_object_name": "STARLINK-35389",
        "meta_object_id": "2025-259N",
        "meta_epoch": "2025-12-04T18:00:02.000160",
        "meta_mean_motion": 15.50572291,
        "meta_eccentricity": 0.0001463,
        "meta_inclination": 43.0006,
        "meta_ra_of_asc_node": 94.0186,
        "meta_arg_of_pericenter": 264.0478,
        "meta_mean_anomaly": 3.9513,
        "meta_ephemeris_type": 0,
        "meta_classification_type": "U",
        "meta_norad_cat_id": 66434,
        "meta_element_set_no": 999,
        "meta_rev_at_epoch": 499,
        "meta_bstar": -0.0004301,
        "meta_mean_motion_dot": -0.00025485,
        "meta_mean_motion_ddot": 0,
        "tle_line1": "1 66434U 25259N   25338.75002315 -.00025485  00000+0 -43010-3 0  9996",
        "tle_line2": "2 66434  43.0006  94.0186 0001463 264.0478   3.9513 15.50572291  4991"
      },
      "geometry": {
        "type": "Point",
        "coordinates": [
          116.18089174186908,
          22.53463281402569
        ]
      }
    },
    {
      "type": "Feature",
      "properties": {
        "norad_id": 66435,
        "name": "STARLINK-35502",
        "group": "last-30-days",
        "lat": 23.711665768373607,
        "lon": 117.85630217411398,
        "alt_km": 411.80315113003235,
        "timestamp": "2025-12-05T11:32:54.808826+00:00",
        "meta_object_name": "STARLINK-35502",
        "meta_object_id": "2025-259P",
        "meta_epoch": "2025-12-04T18:00:02.000160",
        "meta_mean_motion": 15.50544043,
        "meta_eccentricity": 0.0001528,
        "meta_inclination": 43.0007,
        "meta_ra_of_asc_node": 94.0137,
        "meta_arg_of_pericenter": 271.8296,
        "meta_mean_anomaly": 358.0958,
        "meta_ephemeris_type": 0,
        "meta_classification_type": "U",
        "meta_norad_cat_id": 66435,
        "meta_element_set_no": 999,
        "meta_rev_at_epoch": 499,
        "meta_bstar": 0.00034496,
        "meta_mean_motion_dot": 0.00019922,
        "meta_mean_motion_ddot": 0,
        "tle_line1": "1 66435U 25259P   25338.75002315  .00019922  00000+0  34496-3 0  9992",
        "tle_line2": "2 66435  43.0007  94.0137 0001528 271.8296 358.0958 15.50544043  4996"
      },
      "geometry": {
        "type": "Point",
        "coordinates": [
          117.85630217411398,
          23.711665768373607
        ]
      }
    }
  ]
}